{"type": "FeatureCollection", "features": [ {"type": "Feature", "properties": {"norad_id": 58655, "name": "BEIDOU-3 M26 (C48)", "group": "beidou", "lat": 1.8551462987429195, "lon": -112.33120838615348, "alt_km": 21525.1200620565, "timestamp": "2025-12-02T07:10:09.380854+00:00", "meta": {"OBJECT_NAME": "BEIDOU-3 M26 (C48)", "OBJECT_ID": "2023-207B", "EPOCH": "2025-11-29T21:15:29.587968", "MEAN_MOTION": 1.86231123, "ECCENTRICITY": 0.00033719, "INCLINATION": 55.5753, "RA_OF_ASC_NODE": 69.0231, "ARG_OF_PERICENTER": 249.3814, "MEAN_ANOMALY": 110.59, "EPHEMERIS_TYPE": 0, "CLASSIFICATION_TYPE": "U", "NORAD_CAT_ID": 58655, "ELEMENT_SET_NO": 999, "REV_AT_EPOCH": 1311, "BSTAR": 0, "MEAN_MOTION_DOT": -3.1e-07, "MEAN_MOTION_DDOT": 0}, "tle": {"line1": "1 58655U 23207B   25333.88575912 -.00000031  00000+0  00000+0 0  9997", "line2": "2 58655  55.5753  69.0231 0003371 249.3814 110.5900  1.86231123 13116"}}, "geometry": {"type": "Point", "coordinates": [-112.33120838615348, 1.8551462987429195]}}, {"type": "Feature", "properties": {"norad_id": 61186, "name": "BEIDOU-3 M25 (C47)", "group": "beidou", "lat": -47.80779302642167, "lon": -102.44800089056973, "alt_km": 21518.00261660206, "timestamp": "2025-12-02T07:10:09.380865+00:00", "meta": {"OBJECT_NAME": "BEIDOU-3 M25 (C47)", "OBJECT_ID": "2024-168B", "EPOCH": "2025-12-01T06:18:53.159328", "MEAN_MOTION": 1.86229803, "ECCENTRICITY": 0.000556, "INCLINATION": 54.6528, "RA_OF_ASC_NODE": 309.1184, "ARG_OF_PERICENTER": 293.396, "MEAN_ANOMALY": 26.9682, "EPHEMERIS_TYPE": 0, "CLASSIFICATION_TYPE": "U", "NORAD_CAT_ID": 61186, "ELEMENT_SET_NO": 999, "REV_AT_EPOCH": 809, "BSTAR": 0, "MEAN_MOTION_DOT": -5.7e-07, "MEAN_MOTION_DDOT": 0}, "tle": {"line1": "1 61186U 24168B   25335.26311527 -.00000057  00000+0  00000+0 0  9999", "line2": "2 61186  54.6528 309.1184 0005560 293.3960  26.9682  1.86229803  8097"}}, "geometry": {"type": "Point", "coordinates": [-102.44800089056973, -47.80779302642167]}}, {"type": "Feature", "properties": {"norad_id": 61187, "name": "BEIDOU-3 M27 (C49)", "group": "beidou", "lat": 49.880887440945536, "lon": 6.421302863414913, "alt_km": 21523.62619738814, "timestamp": "2025-12-02T07:10:09.380899+00:00", "meta": {"OBJECT_NAME": "BEIDOU-3 M27 (C49)", "OBJECT_ID": "2024-168C", "EPOCH": "2025-12-01T06:11:08.494080", "MEAN_MOTION": 1.86229947, "ECCENTRICITY": 0.0002285, "INCLINATION": 54.6482, "RA_OF_ASC_NODE": 309.1022, "ARG_OF_PERICENTER": 327.2674, "MEAN_ANOMALY": 124.4273, "EPHEMERIS_TYPE": 0, "CLASSIFICATION_TYPE": "U", "NORAD_CAT_ID": 61187, "ELEMENT_SET_NO": 999, "REV_AT_EPOCH": 557, "BSTAR": 0, "MEAN_MOTION_DOT": -5.7e-07, "MEAN_MOTION_DDOT": 0}, "tle": {"line1": "1 61187U 24168C   25335.25773720 -.00000057  00000+0  00000+0 0  9996", "line2": "2 61187  54.6482 309.1022 0002285 327.2674 124.4273  1.86229947  5577"}}, "geometry": {"type": "Point", "coordinates": [6.421302863414913, 49.880887440945536]}}]}